STARLINK-37125          
1 68276U 26055Q   26087.16668981 -.01251579  49025-3 -26235-2 0  9990
2 68276  53.1579 245.0055 0000734  69.7863 145.7017 15.98323990  2607
STARLINK-36989          
1 68277U 26055R   26087.16668981 -.01252200  49254-3 -25729-2 0  9994
2 68277  53.1579 244.9861 0000694  80.8566 144.0598 15.98679590  2606
STARLINK-36982          
1 68278U 26055S   26087.16668981 -.01251425  49138-3 -25879-2 0  9990
2 68278  53.1579 244.9927 0000691  73.7170 148.2845 15.98564925  2605
STARLINK-36934          
1 68279U 26055T   26087.16668981 -.01259660  49669-3 -26216-2 0  9995
2 68279  53.1579 244.9986 0000890  70.1573 148.9004 15.98452343  2604
STARLINK-37070          
1 68280U 26055U   26087.16668981 -.01259592  49857-3 -25681-2 0  9995
2 68280  53.1581 244.9786 0000695  76.0821 152.3981 15.98818423  2609
STARLINK-37134          
1 68281U 26055V   26087.16668981 -.01261069  50095-3 -25358-2 0  9995
2 68281  53.1577 244.9656 0000720  78.0246 156.8410 15.99064121  2608
STARLINK-37160          
1 68282U 26055W   26087.16668981 -.01262546  50137-3 -25562-2 0  9991
2 68282  53.1580 244.9724 0000683  74.4890 157.3413 15.98943104  2607
STARLINK-37124          
1 68283U 26055X   26087.16668981 -.01255806  49773-3 -25094-2 0  9997
2 68283  53.1579 244.9605 0000637  85.5949 151.9097 15.99174524  2602
STARLINK-37159          
1 68284U 26055Y   26087.16668981 -.01255790  49841-3 -24909-2 0  9990
2 68284  53.1580 244.9536 0000715  92.8211 147.9258 15.99304815  2600
STARLINK-36725          
1 68285U 26055Z   26087.16668981 -.01245121  49130-3 -24543-2 0  9993
2 68285  53.1576 244.9478 0000711  71.8553 171.4786 15.99413190  2608
STARLINK-36998          
1 68286U 26055AA  26087.16668981 -.01268512  50977-3 -24613-2 0  9992
2 68286  53.1584 244.9358 0000731  84.3180 165.4835 15.99694588  2602
STARLINK-37165          
1 68287U 26055AB  26087.16668981 -.01246399  49434-3 -24014-2 0  9993
2 68287  53.1580 244.9281 0000562  72.2974 180.5004 15.99814551  2603
