CCSDS_OMM_VERS = 2.0
CREATION_DATE  = 
ORIGINATOR     = 

OBJECT_NAME    = STARLINK-37125
OBJECT_ID      = 2026-055Q
CENTER_NAME    = EARTH
REF_FRAME      = TEME
TIME_SYSTEM    = UTC
MEAN_ELEMENT_THEORY = SGP/SGP4

EPOCH          = 2026-03-28T04:00:01.999584
MEAN_MOTION    = 15.98323990
ECCENTRICITY   = .0000734
INCLINATION    = 53.1579
RA_OF_ASC_NODE = 245.0055
ARG_OF_PERICENTER = 69.7863
MEAN_ANOMALY   = 145.7017

EPHEMERIS_TYPE = 0
CLASSIFICATION_TYPE = U
NORAD_CAT_ID   = 68276
ELEMENT_SET_NO = 999
REV_AT_EPOCH   = 260
BSTAR          = -.26235E-2
MEAN_MOTION_DOT = -.1251579E-1
MEAN_MOTION_DDOT = .49025E-3

CCSDS_OMM_VERS = 2.0
CREATION_DATE  = 
ORIGINATOR     = 

OBJECT_NAME    = STARLINK-36989
OBJECT_ID      = 2026-055R
CENTER_NAME    = EARTH
REF_FRAME      = TEME
TIME_SYSTEM    = UTC
MEAN_ELEMENT_THEORY = SGP/SGP4

EPOCH          = 2026-03-28T04:00:01.999584
MEAN_MOTION    = 15.98679590
ECCENTRICITY   = .0000694
INCLINATION    = 53.1579
RA_OF_ASC_NODE = 244.9861
ARG_OF_PERICENTER = 80.8566
MEAN_ANOMALY   = 144.0598

EPHEMERIS_TYPE = 0
CLASSIFICATION_TYPE = U
NORAD_CAT_ID   = 68277
ELEMENT_SET_NO = 999
REV_AT_EPOCH   = 260
BSTAR          = -.25729E-2
MEAN_MOTION_DOT = -.12522E-1
MEAN_MOTION_DDOT = .49254E-3

CCSDS_OMM_VERS = 2.0
CREATION_DATE  = 
ORIGINATOR     = 

OBJECT_NAME    = STARLINK-36982
OBJECT_ID      = 2026-055S
CENTER_NAME    = EARTH
REF_FRAME      = TEME
TIME_SYSTEM    = UTC
MEAN_ELEMENT_THEORY = SGP/SGP4

EPOCH          = 2026-03-28T04:00:01.999584
MEAN_MOTION    = 15.98564925
ECCENTRICITY   = .0000691
INCLINATION    = 53.1579
RA_OF_ASC_NODE = 244.9927
ARG_OF_PERICENTER = 73.7170
MEAN_ANOMALY   = 148.2845

EPHEMERIS_TYPE = 0
CLASSIFICATION_TYPE = U
NORAD_CAT_ID   = 68278
ELEMENT_SET_NO = 999
REV_AT_EPOCH   = 260
BSTAR          = -.25879E-2
MEAN_MOTION_DOT = -.1251425E-1
MEAN_MOTION_DDOT = .49138E-3

CCSDS_OMM_VERS = 2.0
CREATION_DATE  = 
ORIGINATOR     = 

OBJECT_NAME    = STARLINK-36934
OBJECT_ID      = 2026-055T
CENTER_NAME    = EARTH
REF_FRAME      = TEME
TIME_SYSTEM    = UTC
MEAN_ELEMENT_THEORY = SGP/SGP4

EPOCH          = 2026-03-28T04:00:01.999584
MEAN_MOTION    = 15.98452343
ECCENTRICITY   = .000089
INCLINATION    = 53.1579
RA_OF_ASC_NODE = 244.9986
ARG_OF_PERICENTER = 70.1573
MEAN_ANOMALY   = 148.9004

EPHEMERIS_TYPE = 0
CLASSIFICATION_TYPE = U
NORAD_CAT_ID   = 68279
ELEMENT_SET_NO = 999
REV_AT_EPOCH   = 260
BSTAR          = -.26216E-2
MEAN_MOTION_DOT = -.125966E-1
MEAN_MOTION_DDOT = .49669E-3

CCSDS_OMM_VERS = 2.0
CREATION_DATE  = 
ORIGINATOR     = 

OBJECT_NAME    = STARLINK-37070
OBJECT_ID      = 2026-055U
CENTER_NAME    = EARTH
REF_FRAME      = TEME
TIME_SYSTEM    = UTC
MEAN_ELEMENT_THEORY = SGP/SGP4

EPOCH          = 2026-03-28T04:00:01.999584
MEAN_MOTION    = 15.98818423
ECCENTRICITY   = .0000695
INCLINATION    = 53.1581
RA_OF_ASC_NODE = 244.9786
ARG_OF_PERICENTER = 76.0821
MEAN_ANOMALY   = 152.3981

EPHEMERIS_TYPE = 0
CLASSIFICATION_TYPE = U
NORAD_CAT_ID   = 68280
ELEMENT_SET_NO = 999
REV_AT_EPOCH   = 260
BSTAR          = -.25681E-2
MEAN_MOTION_DOT = -.1259592E-1
MEAN_MOTION_DDOT = .49857E-3

CCSDS_OMM_VERS = 2.0
CREATION_DATE  = 
ORIGINATOR     = 

OBJECT_NAME    = STARLINK-37134
OBJECT_ID      = 2026-055V
CENTER_NAME    = EARTH
REF_FRAME      = TEME
TIME_SYSTEM    = UTC
MEAN_ELEMENT_THEORY = SGP/SGP4

EPOCH          = 2026-03-28T04:00:01.999584
MEAN_MOTION    = 15.99064121
ECCENTRICITY   = .000072
INCLINATION    = 53.1577
RA_OF_ASC_NODE = 244.9656
ARG_OF_PERICENTER = 78.0246
MEAN_ANOMALY   = 156.8410

EPHEMERIS_TYPE = 0
CLASSIFICATION_TYPE = U
NORAD_CAT_ID   = 68281
ELEMENT_SET_NO = 999
REV_AT_EPOCH   = 260
BSTAR          = -.25358E-2
MEAN_MOTION_DOT = -.1261069E-1
MEAN_MOTION_DDOT = .50095E-3

CCSDS_OMM_VERS = 2.0
CREATION_DATE  = 
ORIGINATOR     = 

OBJECT_NAME    = STARLINK-37160
OBJECT_ID      = 2026-055W
CENTER_NAME    = EARTH
REF_FRAME      = TEME
TIME_SYSTEM    = UTC
MEAN_ELEMENT_THEORY = SGP/SGP4

EPOCH          = 2026-03-28T04:00:01.999584
MEAN_MOTION    = 15.98943104
ECCENTRICITY   = .0000683
INCLINATION    = 53.1580
RA_OF_ASC_NODE = 244.9724
ARG_OF_PERICENTER = 74.4890
MEAN_ANOMALY   = 157.3413

EPHEMERIS_TYPE = 0
CLASSIFICATION_TYPE = U
NORAD_CAT_ID   = 68282
ELEMENT_SET_NO = 999
REV_AT_EPOCH   = 260
BSTAR          = -.25562E-2
MEAN_MOTION_DOT = -.1262546E-1
MEAN_MOTION_DDOT = .50137E-3

CCSDS_OMM_VERS = 2.0
CREATION_DATE  = 
ORIGINATOR     = 

OBJECT_NAME    = STARLINK-37124
OBJECT_ID      = 2026-055X
CENTER_NAME    = EARTH
REF_FRAME      = TEME
TIME_SYSTEM    = UTC
MEAN_ELEMENT_THEORY = SGP/SGP4

EPOCH          = 2026-03-28T04:00:01.999584
MEAN_MOTION    = 15.99174524
ECCENTRICITY   = .0000637
INCLINATION    = 53.1579
RA_OF_ASC_NODE = 244.9605
ARG_OF_PERICENTER = 85.5949
MEAN_ANOMALY   = 151.9097

EPHEMERIS_TYPE = 0
CLASSIFICATION_TYPE = U
NORAD_CAT_ID   = 68283
ELEMENT_SET_NO = 999
REV_AT_EPOCH   = 260
BSTAR          = -.25094E-2
MEAN_MOTION_DOT = -.1255806E-1
MEAN_MOTION_DDOT = .49773E-3

CCSDS_OMM_VERS = 2.0
CREATION_DATE  = 
ORIGINATOR     = 

OBJECT_NAME    = STARLINK-37159
OBJECT_ID      = 2026-055Y
CENTER_NAME    = EARTH
REF_FRAME      = TEME
TIME_SYSTEM    = UTC
MEAN_ELEMENT_THEORY = SGP/SGP4

EPOCH          = 2026-03-28T04:00:01.999584
MEAN_MOTION    = 15.99304815
ECCENTRICITY   = .0000715
INCLINATION    = 53.1580
RA_OF_ASC_NODE = 244.9536
ARG_OF_PERICENTER = 92.8211
MEAN_ANOMALY   = 147.9258

EPHEMERIS_TYPE = 0
CLASSIFICATION_TYPE = U
NORAD_CAT_ID   = 68284
ELEMENT_SET_NO = 999
REV_AT_EPOCH   = 260
BSTAR          = -.24909E-2
MEAN_MOTION_DOT = -.125579E-1
MEAN_MOTION_DDOT = .49841E-3

CCSDS_OMM_VERS = 2.0
CREATION_DATE  = 
ORIGINATOR     = 

OBJECT_NAME    = STARLINK-36725
OBJECT_ID      = 2026-055Z
CENTER_NAME    = EARTH
REF_FRAME      = TEME
TIME_SYSTEM    = UTC
MEAN_ELEMENT_THEORY = SGP/SGP4

EPOCH          = 2026-03-28T04:00:01.999584
MEAN_MOTION    = 15.99413190
ECCENTRICITY   = .0000711
INCLINATION    = 53.1576
RA_OF_ASC_NODE = 244.9478
ARG_OF_PERICENTER = 71.8553
MEAN_ANOMALY   = 171.4786

EPHEMERIS_TYPE = 0
CLASSIFICATION_TYPE = U
NORAD_CAT_ID   = 68285
ELEMENT_SET_NO = 999
REV_AT_EPOCH   = 260
BSTAR          = -.24543E-2
MEAN_MOTION_DOT = -.1245121E-1
MEAN_MOTION_DDOT = .4913E-3

CCSDS_OMM_VERS = 2.0
CREATION_DATE  = 
ORIGINATOR     = 

OBJECT_NAME    = STARLINK-36998
OBJECT_ID      = 2026-055AA
CENTER_NAME    = EARTH
REF_FRAME      = TEME
TIME_SYSTEM    = UTC
MEAN_ELEMENT_THEORY = SGP/SGP4

EPOCH          = 2026-03-28T04:00:01.999584
MEAN_MOTION    = 15.99694588
ECCENTRICITY   = .0000731
INCLINATION    = 53.1584
RA_OF_ASC_NODE = 244.9358
ARG_OF_PERICENTER = 84.3180
MEAN_ANOMALY   = 165.4835

EPHEMERIS_TYPE = 0
CLASSIFICATION_TYPE = U
NORAD_CAT_ID   = 68286
ELEMENT_SET_NO = 999
REV_AT_EPOCH   = 260
BSTAR          = -.24613E-2
MEAN_MOTION_DOT = -.1268512E-1
MEAN_MOTION_DDOT = .50977E-3

CCSDS_OMM_VERS = 2.0
CREATION_DATE  = 
ORIGINATOR     = 

OBJECT_NAME    = STARLINK-37165
OBJECT_ID      = 2026-055AB
CENTER_NAME    = EARTH
REF_FRAME      = TEME
TIME_SYSTEM    = UTC
MEAN_ELEMENT_THEORY = SGP/SGP4

EPOCH          = 2026-03-28T04:00:01.999584
MEAN_MOTION    = 15.99814551
ECCENTRICITY   = .0000562
INCLINATION    = 53.1580
RA_OF_ASC_NODE = 244.9281
ARG_OF_PERICENTER = 72.2974
MEAN_ANOMALY   = 180.5004

EPHEMERIS_TYPE = 0
CLASSIFICATION_TYPE = U
NORAD_CAT_ID   = 68287
ELEMENT_SET_NO = 999
REV_AT_EPOCH   = 260
BSTAR          = -.24014E-2
MEAN_MOTION_DOT = -.1246399E-1
MEAN_MOTION_DDOT = .49434E-3

